$$SOE
2460154.500000000, A.D. 2023-Jul-29 00:00:00.0000, -6.686078620879824E+07, -2.727143881772477E+08, -9.719604550952065E+07,
2460161.500000000, A.D. 2023-Aug-05 00:00:00.0000, -5.459502374226184E+07, -2.748862605131426E+08, -9.595379953579409E+07,
2460168.500000000, A.D. 2023-Aug-12 00:00:00.0000, -4.222739427980915E+07, -2.765448290691969E+08, -9.453237626778086E+07,
2460175.500000000, A.D. 2023-Aug-19 00:00:00.0000, -2.978024372788747E+07, -2.776820749567459E+08, -9.293274726733370E+07,
2460182.500000000, A.D. 2023-Aug-26 00:00:00.0000, -1.727648894404205E+07, -2.782907217595052E+08, -9.115620994786368E+07,
2460189.500000000, A.D. 2023-Sep-02 00:00:00.0000, -4.739603937555346E+06, -2.783642787213339E+08, -8.920439913015902E+07,
2460196.500000000, A.D. 2023-Sep-09 00:00:00.0000, 7.806396984681460E+06, -2.778970858085298E+08, -8.707929869097392E+07,
2460203.500000000, A.D. 2023-Sep-16 00:00:00.0000, 2.033697960668827E+07, -2.768843605914115E+08, -8.478325324022710E+07,
2460210.500000000, A.D. 2023-Sep-23 00:00:00.0000, 3.282711445956522E+07, -2.753222465111378E+08, -8.231897974439569E+07,
2460217.500000000, A.D. 2023-Sep-30 00:00:00.0000, 4.525130572748473E+07, -2.732078611551949E+08, -7.968957885658973E+07,
2460224.500000000, A.D. 2023-Oct-07 00:00:00.0000, 5.758362237334364E+07, -2.705393448549893E+08, -7.689854565631184E+07,
2460231.500000000, A.D. 2023-Oct-14 00:00:00.0000, 6.979773284700869E+07, -2.673159126430043E+08, -7.394978002594022E+07,
2460238.500000000, A.D. 2023-Oct-21 00:00:00.0000, 8.186694692209858E+07, -2.635379076484655E+08, -7.084759667897338E+07,
2460245.500000000, A.D. 2023-Oct-28 00:00:00.0000, 9.376426353927773E+07, -2.592068533070765E+08, -6.759673436202195E+07,
2460252.500000000, A.D. 2023-Nov-04 00:00:00.0000, 1.054624236871395E+08, -2.543255047370329E+08, -6.420236400151551E+07,
2460259.500000000, A.D. 2023-Nov-11 00:00:00.0000, 1.169339687525190E+08, -2.488978994075490E+08, -6.067009566957973E+07,
2460266.500000000, A.D. 2023-Nov-18 00:00:00.0000, 1.281513047787381E+08, -2.429294066358307E+08, -5.700598419165985E+07,
2460273.500000000, A.D. 2023-Nov-25 00:00:00.0000, 1.390867728775407E+08, -2.364267753063475E+08, -5.321653318677628E+07,
2460280.500000000, A.D. 2023-Dec-02 00:00:00.0000, 1.497127259391176E+08, -2.293981791820663E+08, -4.930869731978472E+07,
2460287.500000000, A.D. 2023-Dec-09 00:00:00.0000, 1.600016117722500E+08, -2.218532591674624E+08, -4.528988254710449E+07,
2460294.500000000, A.D. 2023-Dec-16 00:00:00.0000, 1.699260629491476E+08, -2.138031617670379E+08, -4.116794415044014E+07,
2460301.500000000, A.D. 2023-Dec-23 00:00:00.0000, 1.794589936060705E+08, -2.052605722763766E+08, -3.695118230497475E+07,
2460308.500000000, A.D. 2023-Dec-30 00:00:00.0000, 1.885737016594427E+08, -1.962397408473192E+08, -3.264833474551471E+07,
2460315.500000000, A.D. 2024-Jan-06 00:00:00.0000, 1.972439743536603E+08, -1.867565029440312E+08, -2.826856633926081E+07,
2460322.500000000, A.D. 2024-Jan-13 00:00:00.0000, 2.054441998886413E+08, -1.768282951319381E+08, -2.382145579650229E+07,
2460329.500000000, A.D. 2024-Jan-20 00:00:00.0000, 2.131494858096187E+08, -1.664741622546757E+08, -1.931697919345542E+07,
2460336.500000000, A.D. 2024-Jan-27 00:00:00.0000, 2.203357814619748E+08, -1.557147545085268E+08, -1.476548990781603E+07,
2460343.500000000, A.D. 2024-Feb-03 00:00:00.0000, 2.269800032798893E+08, -1.445723145586985E+08, -1.017769487638713E+07,
2460350.500000000, A.D. 2024-Feb-10 00:00:00.0000, 2.330601622494932E+08, -1.330706542370711E+08, -5.564627133096188E+06,
2460357.500000000, A.D. 2024-Feb-17 00:00:00.0000, 2.385554926185429E+08, -1.212351201369645E+08, -9.376145930687487E+05,
2460364.500000000, A.D. 2024-Feb-24 00:00:00.0000, 2.434465806986908E+08, -1.090925475117685E+08, 3.691754911146492E+06,
2460371.500000000, A.D. 2024-Mar-02 00:00:00.0000, 2.477154924854457E+08, -9.667120205383605E+07, 8.311672276030838E+06,
2460378.500000000, A.D. 2024-Mar-09 00:00:00.0000, 2.513458988238934E+08, -8.400070930272843E+07, 1.291014931680467E+07,
2460385.500000000, A.D. 2024-Mar-16 00:00:00.0000, 2.543231970182121E+08, -7.111197132415095E+07, 1.747506429209073E+07,
2460392.500000000, A.D. 2024-Mar-23 00:00:00.0000, 2.566346272454849E+08, -5.803706956487885E+07, 2.199421061174987E+07,
2460399.500000000, A.D. 2024-Mar-30 00:00:00.0000, 2.582693799833884E+08, -4.480915414230309E+07, 2.645534861900153E+07,
2460406.500000000, A.D. 2024-Apr-06 00:00:00.0000, 2.592186931386923E+08, -3.146232338792552E+07, 3.084625976970876E+07,
2460413.500000000, A.D. 2024-Apr-13 00:00:00.0000, 2.594759408729149E+08, -1.803149347016611E+07, 3.515480250624741E+07,
2460420.500000000, A.D. 2024-Apr-20 00:00:00.0000, 2.590367116805001E+08, -4.552256303307118E+06, 3.936896962254869E+07,
2460427.500000000, A.D. 2024-Apr-27 00:00:00.0000, 2.578988728026634E+08, 8.939272602089673E+06, 4.347694663882411E+07,
2460434.500000000, A.D. 2024-May-04 00:00:00.0000, 2.560626198077262E+08, 2.240661437031101E+07, 4.746717049328020E+07,
2460441.500000000, A.D. 2024-May-11 00:00:00.0000, 2.535305105246688E+08, 3.581309352949131E+07, 5.132838787263793E+07,
2460448.500000000, A.D. 2024-May-18 00:00:00.0000, 2.503074825963469E+08, 4.912200972369687E+07, 5.504971253128935E+07,
2460455.500000000, A.D. 2024-May-25 00:00:00.0000, 2.464008540952544E+08, 6.229681258463133E+07, 5.862068095710454E+07,
2460462.500000000, A.D. 2024-Jun-01 00:00:00.0000, 2.418203069162865E+08, 7.530127781635328E+07, 6.203130573736392E+07,
2460469.500000000, A.D. 2024-Jun-08 00:00:00.0000, 2.365778531044634E+08, 8.809968252028051E+07, 6.527212597718916E+07,
2460476.500000000, A.D. 2024-Jun-15 00:00:00.0000, 2.306877846971144E+08, 1.006569783345478E+08, 6.833425418136202E+07,
2460483.500000000, A.D. 2024-Jun-22 00:00:00.0000, 2.241666065161674E+08, 1.129389616249464E+08, 7.120941923176263E+07,
2460490.500000000, A.D. 2024-Jun-29 00:00:00.0000, 2.170329505201310E+08, 1.249124370573256E+08, 7.389000503053555E+07,
2460497.500000000, A.D. 2024-Jul-06 00:00:00.0000, 2.093074753728837E+08, 1.365453703168121E+08, 7.636908397024629E+07,
2460504.500000000, A.D. 2024-Jul-13 00:00:00.0000, 2.010127543967715E+08, 1.478070311636266E+08, 7.864044495316571E+07,
2460511.500000000, A.D. 2024-Jul-20 00:00:00.0000, 1.921731513379112E+08, 1.586681265283622E+08, 8.069861599459749E+07,
2460518.500000000, A.D. 2024-Jul-27 00:00:00.0000, 1.828146848780487E+08, 1.691009214481080E+08, 8.253888124776128E+07,
2460525.500000000, A.D. 2024-Aug-03 00:00:00.0000, 1.729648838880436E+08, 1.790793464528248E+08, 8.415729234272753E+07,
2460532.500000000, A.D. 2024-Aug-10 00:00:00.0000, 1.626526353992920E+08, 1.885790906211454E+08, 8.555067406158322E+07,
2460539.500000000, A.D. 2024-Aug-17 00:00:00.0000, 1.519080271979885E+08, 1.975776797983577E+08, 8.671662447069594E+07,
2460546.500000000, A.D. 2024-Aug-24 00:00:00.0000, 1.407621869339703E+08, 2.060545396732988E+08, 8.765350970871057E+07,
2460553.500000000, A.D. 2024-Aug-31 00:00:00.0000, 1.292471196909665E+08, 2.139910436137990E+08, 8.836045368956032E+07,
2460560.500000000, A.D. 2024-Sep-07 00:00:00.0000, 1.173955461475395E+08, 2.213705455799713E+08, 8.883732303633817E+07,
2460567.500000000, A.D. 2024-Sep-14 00:00:00.0000, 1.052407430849209E+08, 2.281783995172649E+08, 8.908470771281815E+07,
2460574.500000000, A.D. 2024-Sep-21 00:00:00.0000, 9.281638575862300E+07, 2.344019662212008E+08, 8.910389799468276E+07,
2460581.500000000, A.D. 2024-Sep-28 00:00:00.0000, 8.015639301742235E+07, 2.400306051888028E+08, 8.889685800757636E+07,
2460588.500000000, A.D. 2024-Oct-05 00:00:00.0000, 6.729478006180826E+07, 2.450556523710631E+08, 8.846619598623461E+07,
2460595.500000000, A.D. 2024-Oct-12 00:00:00.0000, 5.426551955083034E+07, 2.494703878111273E+08, 8.781513202002026E+07,
2460602.500000000, A.D. 2024-Oct-19 00:00:00.0000, 4.110241017841049E+07, 2.532699939686705E+08, 8.694746389728180E+07,
2460609.500000000, A.D. 2024-Oct-26 00:00:00.0000, 2.783895337520970E+07, 2.564515050606477E+08, 8.586753145399544E+07,
2460616.500000000, A.D. 2024-Nov-02 00:00:00.0000, 1.450823890933386E+07, 2.590137484311980E+08, 8.458017984243038E+07,
2460623.500000000, A.D. 2024-Nov-09 00:00:00.0000, 1.142839831398945E+06, 2.609572791353962E+08, 8.309072213878360E+07,
2460630.500000000, A.D. 2024-Nov-16 00:00:00.0000, -1.222528301842636E+07, 2.622843088825859E+08, 8.140490168299468E+07,
2460637.500000000, A.D. 2024-Nov-23 00:00:00.0000, -2.556486684699466E+07, 2.629986303981270E+08, 7.952885450373885E+07,
2460644.500000000, A.D. 2024-Nov-30 00:00:00.0000, -3.884542296234795E+07, 2.631055382176341E+08, 7.746907213082242E+07,
2460651.500000000, A.D. 2024-Dec-07 00:00:00.0000, -5.203730282349631E+07, 2.626117473281668E+08, 7.523236507862042E+07,
2460658.500000000, A.D. 2024-Dec-14 00:00:00.0000, -6.511175507030568E+07, 2.615253118083710E+08, 7.282582741644961E+07,
2460665.500000000, A.D. 2024-Dec-21 00:00:00.0000, -7.804097621725653E+07, 2.598555430782743E+08, 7.025680275029741E+07,
2460672.500000000, A.D. 2024-Dec-28 00:00:00.0000, -9.079815346598504E+07, 2.576129255329966E+08, 6.753285135680354E+07,
2460679.500000000, A.D. 2025-Jan-04 00:00:00.0000, -1.033574975413211E+08, 2.548090326046816E+08, 6.466171856439583E+07,
2460686.500000000, A.D. 2025-Jan-11 00:00:00.0000, -1.156942678946432E+08, 2.514564455225626E+08, 6.165130479555218E+07,
2460693.500000000, A.D. 2025-Jan-18 00:00:00.0000, -1.277847917249328E+08, 2.475686743574986E+08, 5.850963734645164E+07,
2460700.500000000, A.D. 2025-Jan-25 00:00:00.0000, -1.396064771298667E+08, 2.431600812900140E+08, 5.524484388044913E+07,
2460707.500000000, A.D. 2025-Feb-01 00:00:00.0000, -1.511378207641573E+08, 2.382458064116391E+08, 5.186512763333508E+07,
2460714.500000000, A.D. 2025-Feb-08 00:00:00.0000, -1.623584105118768E+08, 2.328416963552076E+08, 4.837874432898755E+07,
2460721.500000000, A.D. 2025-Feb-15 00:00:00.0000, -1.732489236921545E+08, 2.269642359539864E+08, 4.479398078778738E+07,
$$EOE